start=new Date('2023-05-13T00:00:00.000Z').valueOf();
sats=[{"EPHEMERIS_TYPE":"0","CLASSIFICATION_TYPE":"U","MEAN_ELEMENT_THEORY":"SGP4","COUNTRY_CODE":"US","TLE_LINE2":"2 48589  53.0555  86.8037 0001493  85.1422 274.9737 15.06397983110024","NORAD_CAT_ID":"48589","RCS_SIZE":"LARGE","EPOCH":"2023-05-12T03:53:44.811744","DECAY_DATE":null,"MEAN_MOTION_DDOT":"0.0000000000000","ECCENTRICITY":"0.00014930","GP_ID":"231646673","FILE":"3905798","TLE_LINE1":"1 48589U 21041AN  23132.16232421 -.00001483  00000-0 -80651-4 0  9996","SEMIMAJOR_AXIS":"6925.355","REF_FRAME":"TEME","RA_OF_ASC_NODE":"86.8037","BSTAR":"-0.00008065100000","LAUNCH_DATE":"2021-05-15","PERIAPSIS":"546.186","REV_AT_EPOCH":"11002","ARG_OF_PERICENTER":"85.1422","OBJECT_ID":"2021-041AN","INCLINATION":"53.0555","ELEMENT_SET_NO":"999","MEAN_MOTION":"15.06397983","TIME_SYSTEM":"UTC","MEAN_ANOMALY":"274.9737","PERIOD":"95.592","CENTER_NAME":"EARTH","SITE":"AFETR","OBJECT_TYPE":"PAYLOAD","APOAPSIS":"548.254","MEAN_MOTION_DOT":"-0.00001483","OBJECT_NAME":"STARLINK-2245"},{"CENTER_NAME":"EARTH","SITE":"AFETR","PERIOD":"95.592","TIME_SYSTEM":"UTC","MEAN_ANOMALY":"280.8944","MEAN_MOTION":"15.06396449","OBJECT_NAME":"STARLINK-2248","MEAN_MOTION_DOT":"0.00011179","APOAPSIS":"548.391","OBJECT_TYPE":"PAYLOAD","RA_OF_ASC_NODE":"86.8796","BSTAR":"0.00076823000000","SEMIMAJOR_AXIS":"6925.359","REF_FRAME":"TEME","ELEMENT_SET_NO":"999","INCLINATION":"53.0540","OBJECT_ID":"2021-041AQ","ARG_OF_PERICENTER":"79.2234","REV_AT_EPOCH":"11047","PERIAPSIS":"546.058","LAUNCH_DATE":"2021-05-15","EPOCH":"2023-05-12T03:31:10.051968","DECAY_DATE":null,"MEAN_MOTION_DDOT":"0.0000000000000","TLE_LINE1":"1 48591U 21041AQ  23132.14664412  .00011179  00000-0  76823-3 0  9992","FILE":"3905921","GP_ID":"231670594","ECCENTRICITY":"0.00016840","EPHEMERIS_TYPE":"0","RCS_SIZE":"LARGE","NORAD_CAT_ID":"48591","TLE_LINE2":"2 48591  53.0540  86.8796 0001684  79.2234 280.8944 15.06396449110471","MEAN_ELEMENT_THEORY":"SGP4","COUNTRY_CODE":"US","CLASSIFICATION_TYPE":"U"},{"DECAY_DATE":null,"EPOCH":"2023-05-12T05:21:17.612928","MEAN_MOTION_DDOT":"0.0000000000000","TLE_LINE1":"1 48592U 21041AR  23132.22312052 -.00000563  00000-0 -18927-4 0  9991","FILE":"3906381","ECCENTRICITY":"0.00011240","GP_ID":"231707421","EPHEMERIS_TYPE":"0","NORAD_CAT_ID":"48592","RCS_SIZE":"MEDIUM","COUNTRY_CODE":"US","MEAN_ELEMENT_THEORY":"SGP4","TLE_LINE2":"2 48592  53.0540  96.5648 0001124  92.9359 267.1759 15.06383932109445","CLASSIFICATION_TYPE":"U","PERIOD":"95.593","SITE":"AFETR","CENTER_NAME":"EARTH","TIME_SYSTEM":"UTC","MEAN_ANOMALY":"267.1759","MEAN_MOTION":"15.06383932","OBJECT_NAME":"STARLINK-2249","APOAPSIS":"548.041","MEAN_MOTION_DOT":"-0.00000563","OBJECT_TYPE":"PAYLOAD","RA_OF_ASC_NODE":"96.5648","BSTAR":"-0.00001892700000","SEMIMAJOR_AXIS":"6925.398","REF_FRAME":"TEME","ELEMENT_SET_NO":"999","INCLINATION":"53.0540","OBJECT_ID":"2021-041AR","ARG_OF_PERICENTER":"92.9359","REV_AT_EPOCH":"10944","LAUNCH_DATE":"2021-05-15","PERIAPSIS":"546.484"},{"RCS_SIZE":"LARGE","NORAD_CAT_ID":"48593","CLASSIFICATION_TYPE":"U","TLE_LINE2":"2 48593  53.0528  96.8125 0001496  96.8863 263.2296 15.06388452109737","MEAN_ELEMENT_THEORY":"SGP4","COUNTRY_CODE":"US","EPHEMERIS_TYPE":"0","TLE_LINE1":"1 48593U 21041AS  23132.16140891 -.00001464  00000-0 -79441-4 0  9994","GP_ID":"231646185","ECCENTRICITY":"0.00014960","FILE":"3905799","MEAN_MOTION_DDOT":"0.0000000000000","DECAY_DATE":null,"EPOCH":"2023-05-12T03:52:25.729824","OBJECT_ID":"2021-041AS","ELEMENT_SET_NO":"999","INCLINATION":"53.0528","PERIAPSIS":"546.213","LAUNCH_DATE":"2021-05-15","REV_AT_EPOCH":"10973","ARG_OF_PERICENTER":"96.8863","RA_OF_ASC_NODE":"96.8125","BSTAR":"-0.00007944100000","SEMIMAJOR_AXIS":"6925.384","REF_FRAME":"TEME","MEAN_MOTION_DOT":"-0.00001464","APOAPSIS":"548.285","OBJECT_NAME":"STARLINK-2250","OBJECT_TYPE":"PAYLOAD","TIME_SYSTEM":"UTC","MEAN_ANOMALY":"263.2296","CENTER_NAME":"EARTH","SITE":"AFETR","PERIOD":"95.593","MEAN_MOTION":"15.06388452"},{"OBJECT_ID":"2021-041AT","ELEMENT_SET_NO":"999","INCLINATION":"53.0535","PERIAPSIS":"546.489","LAUNCH_DATE":"2021-05-15","REV_AT_EPOCH":"11031","ARG_OF_PERICENTER":"75.4872","BSTAR":"0.00155760000000","RA_OF_ASC_NODE":"66.7741","SEMIMAJOR_AXIS":"6925.487","REF_FRAME":"TEME","MEAN_MOTION_DOT":"0.00022967","APOAPSIS":"548.215","OBJECT_NAME":"STARLINK-2251","OBJECT_TYPE":"PAYLOAD","MEAN_ANOMALY":"284.6256","TIME_SYSTEM":"UTC","CENTER_NAME":"EARTH","SITE":"AFETR","PERIOD":"95.595","MEAN_MOTION":"15.06354887","RCS_SIZE":"LARGE","NORAD_CAT_ID":"48594","CLASSIFICATION_TYPE":"U","TLE_LINE2":"2 48594  53.0535  66.7741 0001246  75.4872 284.6256 15.06354887110316","COUNTRY_CODE":"US","MEAN_ELEMENT_THEORY":"SGP4","EPHEMERIS_TYPE":"0","TLE_LINE1":"1 48594U 21041AT  23132.18998902  .00022967  00000-0  15576-2 0  9997","GP_ID":"231646678","ECCENTRICITY":"0.00012460","FILE":"3905799","DECAY_DATE":null,"EPOCH":"2023-05-12T04:33:35.051328","MEAN_MOTION_DDOT":"0.0000000000000"},{"EPHEMERIS_TYPE":"0","NORAD_CAT_ID":"48595","RCS_SIZE":"LARGE","CLASSIFICATION_TYPE":"U","MEAN_ELEMENT_THEORY":"SGP4","COUNTRY_CODE":"US","TLE_LINE2":"2 48595  53.0532  96.5966 0001424  76.9047 283.2101 15.06383045110718","DECAY_DATE":null,"EPOCH":"2023-05-12T05:01:25.417344","MEAN_MOTION_DDOT":"0.0000000000000","TLE_LINE1":"1 48595U 21041AU  23132.20932196 -.00004902  00000-0 -31057-3 0  9998","ECCENTRICITY":"0.00014240","GP_ID":"231706672","FILE":"3906381","BSTAR":"-0.00031057000000","RA_OF_ASC_NODE":"96.5966","SEMIMAJOR_AXIS":"6925.401","REF_FRAME":"TEME","OBJECT_ID":"2021-041AU","INCLINATION":"53.0532","ELEMENT_SET_NO":"999","LAUNCH_DATE":"2021-05-15","PERIAPSIS":"546.279","REV_AT_EPOCH":"11071","ARG_OF_PERICENTER":"76.9047","MEAN_ANOMALY":"283.2101","TIME_SYSTEM":"UTC","PERIOD":"95.593","CENTER_NAME":"EARTH","SITE":"AFETR","MEAN_MOTION":"15.06383045","APOAPSIS":"548.252","MEAN_MOTION_DOT":"-0.00004902","OBJECT_NAME":"STARLINK-2252","OBJECT_TYPE":"PAYLOAD"},{"DECAY_DATE":null,"MEAN_MOTION_DDOT":"0.0000000000000","EPOCH":"2023-05-12T15:06:31.477536","TLE_LINE1":"1 48596U 21041AV  23132.62953099  .00010420  00000-0  71759-3 0  9993","ECCENTRICITY":"0.00017230","GP_ID":"231706922","FILE":"3906381","EPHEMERIS_TYPE":"0","NORAD_CAT_ID":"48596","RCS_SIZE":"LARGE","CLASSIFICATION_TYPE":"U","COUNTRY_CODE":"US","MEAN_ELEMENT_THEORY":"SGP4","TLE_LINE2":"2 48596  53.0537  94.7125 0001723  83.1266 276.9919 15.06388548109960","MEAN_ANOMALY":"276.9919","TIME_SYSTEM":"UTC","PERIOD":"95.593","CENTER_NAME":"EARTH","SITE":"AFETR","MEAN_MOTION":"15.06388548","APOAPSIS":"548.442","MEAN_MOTION_DOT":"0.00010420","OBJECT_NAME":"STARLINK-2253","OBJECT_TYPE":"PAYLOAD","BSTAR":"0.00071759000000","RA_OF_ASC_NODE":"94.7125","SEMIMAJOR_AXIS":"6925.384","REF_FRAME":"TEME","OBJECT_ID":"2021-041AV","INCLINATION":"53.0537","ELEMENT_SET_NO":"999","LAUNCH_DATE":"2021-05-15","PERIAPSIS":"546.055","ARG_OF_PERICENTER":"83.1266","REV_AT_EPOCH":"10996"},{"OBJECT_TYPE":"PAYLOAD","MEAN_MOTION_DOT":"0.00004398","APOAPSIS":"548.113","OBJECT_NAME":"STARLINK-2255","MEAN_MOTION":"15.06391777","TIME_SYSTEM":"UTC","MEAN_ANOMALY":"262.0779","SITE":"AFETR","CENTER_NAME":"EARTH","PERIOD":"95.593","PERIAPSIS":"546.364","LAUNCH_DATE":"2021-05-15","ARG_OF_PERICENTER":"98.0353","REV_AT_EPOCH":"11070","OBJECT_ID":"2021-041AW","ELEMENT_SET_NO":"999","INCLINATION":"53.0535","SEMIMAJOR_AXIS":"6925.374","REF_FRAME":"TEME","BSTAR":"0.00031401000000","RA_OF_ASC_NODE":"96.7665","GP_ID":"231646191","ECCENTRICITY":"0.00012630","FILE":"3905800","TLE_LINE1":"1 48597U 21041AW  23132.17247481  .00004398  00000-0  31401-3 0  9992","DECAY_DATE":null,"EPOCH":"2023-05-12T04:08:21.823584","MEAN_MOTION_DDOT":"0.0000000000000","CLASSIFICATION_TYPE":"U","TLE_LINE2":"2 48597  53.0535  96.7665 0001263  98.0353 262.0779 15.06391777110703","COUNTRY_CODE":"US","MEAN_ELEMENT_THEORY":"SGP4","RCS_SIZE":"LARGE","NORAD_CAT_ID":"48597","EPHEMERIS_TYPE":"0"},{"INCLINATION":"53.0528","ELEMENT_SET_NO":"999","OBJECT_ID":"2021-041AX","ARG_OF_PERICENTER":"98.6273","REV_AT_EPOCH":"10989","LAUNCH_DATE":"2021-05-15","PERIAPSIS":"546.318","RA_OF_ASC_NODE":"96.7483","BSTAR":"0.00000852090000","REF_FRAME":"TEME","SEMIMAJOR_AXIS":"6925.383","OBJECT_NAME":"STARLINK-2256","APOAPSIS":"548.179","MEAN_MOTION_DOT":"-0.00000155","OBJECT_TYPE":"PAYLOAD","PERIOD":"95.593","CENTER_NAME":"EARTH","SITE":"AFETR","MEAN_ANOMALY":"261.4868","TIME_SYSTEM":"UTC","MEAN_MOTION":"15.06388667","NORAD_CAT_ID":"48598","RCS_SIZE":"LARGE","MEAN_ELEMENT_THEORY":"SGP4","COUNTRY_CODE":"US","TLE_LINE2":"2 48598  53.0528  96.7483 0001344  98.6273 261.4868 15.06388667109895","CLASSIFICATION_TYPE":"U","EPHEMERIS_TYPE":"0","TLE_LINE1":"1 48598U 21041AX  23132.17614885 -.00000155  00000-0  85209-5 0  9994","FILE":"3905800","ECCENTRICITY":"0.00013440","GP_ID":"231646692","DECAY_DATE":null,"EPOCH":"2023-05-12T04:13:39.260640","MEAN_MOTION_DDOT":"0.0000000000000"},{"EPHEMERIS_TYPE":"0","TLE_LINE2":"2 48599  53.0541  71.9292 0001746  92.3736 267.7453 15.06398916111053","MEAN_ELEMENT_THEORY":"SGP4","COUNTRY_CODE":"US","CLASSIFICATION_TYPE":"U","RCS_SIZE":"LARGE","NORAD_CAT_ID":"48599","DECAY_DATE":null,"MEAN_MOTION_DDOT":"0.0000000000000","EPOCH":"2023-05-12T03:15:55.958112","FILE":"3905921","GP_ID":"231670595","ECCENTRICITY":"0.00017460","TLE_LINE1":"1 48599U 21041AY  23132.13606433  .00010776  00000-0  74127-3 0  9995","REF_FRAME":"TEME","SEMIMAJOR_AXIS":"6925.352","RA_OF_ASC_NODE":"71.9292","BSTAR":"0.00074127000000","ARG_OF_PERICENTER":"92.3736","REV_AT_EPOCH":"11105","PERIAPSIS":"546.008","LAUNCH_DATE":"2021-05-15","ELEMENT_SET_NO":"999","INCLINATION":"53.0541","OBJECT_ID":"2021-041AY","MEAN_MOTION":"15.06398916","SITE":"AFETR","CENTER_NAME":"EARTH","PERIOD":"95.592","MEAN_ANOMALY":"267.7453","TIME_SYSTEM":"UTC","OBJECT_TYPE":"PAYLOAD","OBJECT_NAME":"STARLINK-2274","MEAN_MOTION_DOT":"0.00010776","APOAPSIS":"548.426"}];
